Company Name,Membership No,Membership Type,Establishment,Logo URL,Short Profile,Address,Area,Postcode,Phone,Email,Company Website,Legal Structure,Valid Till,Services
Happihub Platform Ltd.,22-02-068,Affiliate,December 2021,https://basis.org.bd/images/logo/30ff36c33b5b0d254da7b2768e57abe117022022021513.png,Happihub Platform Limited is a Software Development company which provides website/software development and maintenance support.,"House 2, Road 3, Block B, Banasree Avenue Road, Dhaka",Banasree,1219,+8801673128667,kazihasan@happihub.com,https://www.happihub.com,Limited Company,,Web Development
Enigma Multimedia Limited,23-04-057,Affiliate,April 2021,https://basis.org.bd/images/logo/79d0c6e2e2c169d4591d22ee5b0c67ce11042023041624.png,"We are Enigma Multimedia Ltd (EML) working as a Community Marketing Organization. We create diverse multimedia content for diverse audiences. Our Vision is to promote viewers to experience content, not popular content, maintaining greater awareness of sustainable development goals with highest patriotism","Police Plaza Concord, Tower-1 (5th Floor), Plot-02, Road- 144, Gulshan-1, Dhaka-1212, Bangladesh",Gulshan,1212,01967889988,info@enigmabd.tv,http://www.enigmabd.tv,Limited Company,,Web Development
ANS MUSIC OPC,23-12-057,Affiliate,February 2022,https://basis.org.bd/images/logo/6838df21455ad9bc847375b10f8e5ffc20122023122240.png,"Welcome to ANS Music, a dynamic force in the music industry. Established in 2022, we are a multifaceted entity encompassing a record label, audio-visual production house, and cutting-edge media tech company. As an international digital music and digital content distributor and aggregator, we empower artists and label owners globally. With a robust network of over 200 digital service providers, including Spotify, TikTok, Facebook, and YouTube, ANS Music ensures your music reaches vast audiences, maximizing monetization. Join us in shaping the future of music distribution and amplifying your artistic journey.","21/A Media Goli, New Eskaton Road, Dhaka",Moghbazar,1000,01890076006,info@ansmusiclimited.com,https://ansmusiclimited.com,Limited Company,,"Web Development, Web Based Audio-Visual Distribution Application"
BizMappers Ltd.,24-06-042,Affiliate,December 2023,https://basis.org.bd/images/logo/17e80f42cfaef7ab5fabf868f167a40414062024065002.png,"BizMappers Ltd. is founded by 7 young and highly skilled professionals with 10 to 15 years of experience in diversified fields of IT enabled services, web development, digital marketing, commercial ad production, and brand development. Since its inception, the company focused on ROI based marketing that helped to grow 350+ e-commerce, f-commerce and corporate businesses in the last 3 years of our operation. “Automated Online Sales through Facebook Marketing” is the highly creative IT enabled business idea & execution expertise that keeps BizMappers Ltd. unique and unparalleled within thousands of digital marketing agencies. Our vision is to become the leading IT based business consultancy company in Bangladesh as well in the world.","House No. 549 (5th Floor), Road No. 10, Adabor",Mohammadpur,1207,8801779689831,contact@bizmappers.com,http://www.bizmappers.com,Limited Company,,"Consultancy, IT, Digital Marketing, Web Development, Branding, Creative Production"
Debug BD Ltd.,21-04-002,Associate,February 2019,https://basis.org.bd/images/logo/606ed739e8e0ddebug_bd_logo_final_eng.png,IT Solutions,"Apt B5, House 43, Road 23, Block B, Banani",Gulshan,1212,01708123433,debugbd@gmail.com,http://www.debugbd.com,Limited Company,,Web Development
Themefisher,21-06-014,Associate,February 2019,https://basis.org.bd/images/logo/60be4182e224etf-logo.png,Themefisher is a global static themes marketplace. We design and develop Incredible Themes and Templates using modern web technologies to help developers and entrepreneurs build websites.,"21/15 Babor Road, Mohammadpur, Dhaka",Mohammadpur,1207,01672506744,mehedi@themefisher.com,https://www.themefisher.com,Proprietorship,,Web Development
Tech Bhai,21-08-034,Associate,December 2016,https://basis.org.bd/images/logo/32b3a0005ae5defeaaa0b028dbb1c20414012023013610.png,"Tech-Bhai, founded in 2016, is a dynamic Bangladeshi IT solutions provider committed to delivering top-notch technology services tailored to meet the needs of businesses and individuals. As a proud member of BASIS (Bangladesh Association of Software and Information Services), Tech-Bhai is dedicated to fostering growth and innovation within the tech industry.  Tech-Bhai provides comprehensive web development services for both local and international markets, covering front-end and back-end solutions. Skilled in HTML, CSS, JavaScript, PHP, and Python, we build responsive, secure websites with robust data management. Our e-commerce expertise includes Shopify, WooCommerce, and more, along with CMS customization for WordPress, Laravel, and other platforms. We also manage technical SEO, API integration, and web application development for Progressive Web Apps (PWAs) and Single Page Applications (SPAs). With reliable hosting, deployment, and security measures, Tech-Bhai ensures seamless, end-to-end support, empowering clients with a strong, optimized online presence.  Tech-Bhai offers custom software development services, crafting tailored solutions to meet unique business needs. We specialize in building scalable applications using modern technologies like Python, Java, .NET, and cloud platforms such as AWS and Azure. From enterprise software to mobile and web applications, we deliver secure, user-friendly solutions with an emphasis on efficiency and performance. Tech-Bhai’s development process includes detailed planning, agile methodologies, and rigorous testing to ensure high-quality results. With robust support and maintenance, Tech-Bhai provides end-to-end services to help businesses streamline operations and achieve their goals.  Tech-Bhai provides custom mobile app development, creating intuitive, high-performance apps for iOS and Android. Using frameworks like React Native and Flutter, we ensure fast, cross-platform solutions. From concept to deployment, Tech-Bhai focuses on user experience, security, and seamless functionality, supporting businesses in reaching a wider mobile audience effectively.  Tech-Bhai provides robust business email solutions, including Microsoft 365, Exchange Online Plan and Google Workspace, ensuring secure, professional communication. Our IT solutions cover setup, migration, and support for seamless integration, enhancing collaboration and productivity across organizations while prioritizing data security and reliable service for business needs.","218/3, Shefali Complex (Level-5), Begum Rokeya Sarani, Dhaka 1207",Mirpur,1207,01716620452,sales@tech-bhai.com,https://www.tech-bhai.com/,Partnership,,"Microsoft 365 Business, POS, Google Workspace, ERP, IT Solutions, Web Development"
Mediusware Ltd,21-11-074,Associate,January 2015,https://basis.org.bd/images/logo/0e55debab62779a47da97027186d7d5c27122021125528.png,"Incepted in 2015, Mediusware Ltd. has been serving as a leading IT solution company in Bangladesh. Our aim is to help businesses all around the world by providing digital solutions according to their needs. Our Services: • Web Development • Mobile App Development • E-commerce Solution • Enterprise Resource Planning • Software Development • API Integration • UX/UI Design • Software Quality Assurance Besides these, Mediusware also designs and develops innovative products for itself and its clients. On our journey to the completion of over 1000+ projects, we have satisfied a lot of local and international companies. If you want to upgrade the systems and software of your business with the latest and proven technology, you can have your trust with us!","Ring Road, House - 18/5, Floor - 2nd, Mohammadpur",Mohammadpur,1207,01715712931,coredeveloper.2013@gmail.com,www.mediusware.com,Limited Company,,Web Development
EchoaSoft Limited,22-02-001,Associate,January 2020,https://basis.org.bd/images/logo/ec8bdfd17bc49d1b7b8166115cdf289415032022033847.png,Software Development,"House 14, Rd No. 20, Nikunja-2, Khilkhet,",Khilkhet,1229,01717337907,quickbooks.echoasoftlimited@gmail.com,http://www.echoasoft.com,Limited Company,,Web Development
Azoncode Ltd.,22-02-015,Associate,December 2014,https://basis.org.bd/images/logo/b8f672247881d6b318858621968a34e309022022024300.png,"Azoncode Ltd is one of the leading companies for developing enterprise products for business. It provides subscription based web solutions, software, mobile apps, domain name, web hosting and IT enabled services. The company was duly established in 2014 and has its registered office in Gulshan, Dhaka, Bangladesh and global offshore office in London, UK.","Suite# 3, 2nd Floor, 196 Green Road, Kalabagan, Dhaka-1205",Motijheel,1205,01798669999,admin@azoncode.com,https://azoncode.com,Limited Company,,Web Development
Bit Code Technologies Limited,22-02-019,Associate,November 2018,https://basis.org.bd/images/logo/04bfa2751eddfe7ad9bfa123e21c2b4f14032022033141.jpg,"Bit Code Technologies LTD is Zoho Certified Developer and Advanced Partner, Twilio Technology Partner. We also develop WordPress plugin, SAAS software and custom software.","Aris United, 6th floor, 3rd Road, Nasirabad Properties, Khulshi",,4000,01521227387,admin@bitcode.pro,https://www.bitcode.pro/,Limited Company,,Web Development
Centranix Limited,22-04-007,Associate,October 2021,https://basis.org.bd/images/logo/dbbf805e0344943b276e502d35034d2f28042022043218.png,"Centranix is a provider of IT consultation & services for medium to large organisations who are looking to establish, expand or enhance their business operations.","8/A, Holding 15, Road 5, Main Road 3, Block A, Section 11, Pallabi",Mirpur,1216,+8801855 955 535,sales@centranix.com,http://www.centranix.com,Limited Company,,Web Development
B Technologies,22-04-009,Associate,January 2021,https://basis.org.bd/images/logo/cf9790afe9f60e1cf69b9ddc55a1717602062022064645.png,Software development and IT Solutions,"Horihorpur, Shikder hat, Dinajpur Sadar",,5200,01719361496,abuhayat.du@gmail.com,http://bTechnologies.us,Proprietorship,,Web Development
Finva Soft Limited,22-05-017,Associate,January 2022,https://basis.org.bd/images/logo/3575b8742c9257737bde30319e5abd9f03092023092557.jpg,"Finvasoft Limited is an award-winning software company in health tech solutions in Bangladesh. We're an ""Associate Member"" of BASIS, and we are committed to delivering innovative and high-quality software solutions to our clients. At Finva Soft Limited, we offer a wide range of services, including Customized Software Development, Web Development, Mobile App Development, Cloud computing, E-commerce Solution, SQA and Digital Marketing. In addition to our custom software development services, we also offer a range of ready-to-use products such as Diagnostic/Lab Management Software, Sales & Inventory Management Software, Multivendor E-commerce System, Enterprise resource planning (ERP) Software & Real-time Garment Production Tracking System. For more information about our services and products, please contact us at +880 1321-227280 Or Email: contact@finvasoft.com","House 196, Road 2, Ave 3, Mirpur DOHS, Dhaka 1216, Bangladesh.",Mirpur,1216,01321227280,finvasoft@gmail.com,https://www.finvasoft.com,Limited Company,,"E-commerce Solution, Mobile App Development, Digital Marketing, Software Development, Web Development"
Fair Pattern LTD,22-07-002,Associate,June 2021,https://basis.org.bd/images/logo/457307a85a752ec432a72eb0851b4ef805072022073524.png,"Fair Pattern is a 20 year old New York City and State Certified Minority Business headquartered in New York City.  We are a group of experienced project managers, Sr. developers, analysts with 20+ years of experience in delivering projects using cutting edge Open Source, Microsoft, AI / ML, Python, Big Data and Mobile platforms.  We have been in the project consulting and delivery space for the last 20 years and have catered to some large Fortune 500 companies such as RBS bank, Louise Vuitton Moet Hennessy, NY Department of Finance, Mt Sinai Hospital Group, City of Houston, New York City Department of Planning and more.","House: 80, Road: 07, Apt: A3, Block: H, Banani, Dhaka 1213, Bangladesh.",Banani,1213,+8801711279433,ajay@fairpattern.com,http://www.fairpattern.com,Limited Company,,"Project Management, Marketing/Sales Automation, Web Development, Mobile Application Development, E-Commerce, ERP"
Qtec Solution Limited,22-08-006,Associate,March 2020,https://basis.org.bd/images/logo/3f1e8e5c95cf32007ceaad8f5830afca02082022080140.png,"Offshore Custom Web Software, Mobile Applications Development, UI/UX Design team.","House 23, Road 04, Nikunja 2, Khilkhet, Dhaka 1229",,1229,01313522828,qtecsolution.com@gmail.com,https://qtecsolution.com/,Limited Company,,Web Development
Renaissance Technology BD,22-08-040,Associate,August 2018,https://basis.org.bd/images/logo/eb26e5f6add0484032c26a3abe312aae27082022081539.png,"Pioneer of IT Training Center in Farmgate, Dhaka at the early stage of the IT revolution in Bangladesh.  Renaissance Technology BD was the pioneer of the IT & Computer Training Center at the heart of Dhaka, Farmgate at end of the 19th century.","61- Bijoy Nagar, Dhaka-1000.",Motijheel,1000,01711314156,rentechbd@gmail.com,https://www.rentechbd.com/,Proprietorship,,Web Development
Anirban Soft,22-09-003,Associate,July 2012,https://basis.org.bd/images/logo/f6b945b30ebaba99b4e1e156ab6e626f04102022100123.jpg,"Anirban Soft is the most creative software company in Bangladesh. We are one of the best software company for custom mobile, web and desktop software development.","1/2 Asad Avenue, Asad Gate Road, Mohammadpur, Dhaka-1207",Mohammadpur,1207,01400677102,info@anirbansoft.com,https://www.anirbansoft.com/,Proprietorship,,"Digital Marketing, App Development, Software Development, Web Development, Domain Registration, Hosting Server, IT Support"
Maple BPO,22-09-012,Associate,October 2018,https://basis.org.bd/images/logo/4bf96231b26f9dad5954e00b0b6164b206102022104634.png,"Maple BPO is a registered firm incorporated under Bangladesh's Registrar of Joint Stock Companies (RJSC). We have partnered with many foreign business entities.  In 2018, we started our journey with a mission of helping businesses grow. Since then, it has come a long way in contributing to Business Process Outsourcing (BPO) & IT Enabled Services (ITES). Our global footprint covers more than 14 countries including USA, UK, and CANADA.  Maple BPO adopts a customer & business-driven methodology that boosts productivity and commitment for customers and fellow employees. The company employs more than 250 highly motivated individuals inspired by experienced senior management.","H 409, R 10, Padma R/A, Rajshahi",Rajshahi,6207,01713777716,contact@maplebpo.com,maplebpo.com,Partnership,,"Web Development, Cloud Bookkeeping & Accountancy, Digital Marketing, Ecommerce Management, Customer Support"
Tech for Biz Limited,22-11-012,Associate,May 2022,https://basis.org.bd/images/logo/280d349890986064ea95ef63b80ab03629112022114428.png,"ANALYTICS, WEB, DATABASE, AR VR, CLOUD, NETWORK SOLUTIONS","House: 12, Road: 110, Gulshan-2, Gulshan, Dhaka-1212",Gulshan,1212,+880 1678-032058,ashique@tech4bizglobal.com,https://tech4bizglobal.com/,Limited Company,,Web Development
Alphabyte Technology Ltd.,23-04-025,Associate,February 2022,https://basis.org.bd/images/logo/2428b059cf12268d414a2f3bdb94440e10032024031506.jpg,"We leverage our extensive experience and talented resource pool to deliver the top-notch IT services for businesses globally. Over the years, we have succeeded in keeping up the trust placed in us by our customers and established long term relations.","House # 61 (2nd Floor), Road # 14, Sector # 14, Uttara Model Town",Uttara,1230,01720821221,info@alphabytetech.com,http://www.alphabytetech.com/,Limited Company,,"Custom Software Development, Web Development, Product Development, Mobile Apps"
Quadque Technologies Pvt. Limited,23-05-003,Associate,December 2020,https://basis.org.bd/images/logo/d8af68d618b0dae9fda6edb98fcd222330072023073250.jpg,Mission To deliver innovative and reliable technological solutions with maximum accuracy.   Vision To be among the top-notch tech companies in the world.   Objective To achieve each and every client’s satisfaction.   Goal To define a new dimension of quality using advanced technological solutions.,"Level -7, 8/C, F.R Tower, Sukrabad, Panthapath 1207 Dhaka",Dhanmondi,1207,01765276560,hello@quadque.tech,www.quadque.tech,Limited Company,,Web Development
Omnixima,23-12-008,Associate,January 2022,https://basis.org.bd/images/logo/97c274355f3e3d1b8d88c2780213b7c020122023120154.jpg,Omnixima was established with the goal of making life easier for our customers through our innovative products and services.,"5/1, Folder Street, Wari",Wari,1203,09611656005,info@omnixima.com,https://omnixima.com,Proprietorship,,"Web Development, Software Development"
DigiFea,24-03-637,Associate,December 2021,https://basis.org.bd/images/logo/63dcc81d9416d26823ca1126fb8b505211032024034415.png,"DigiFea is a global outsourcing firm that provides a wide array of affordable outsourcing services worldwide. We were founded in 2011 with the aim to provide cost-effective back-end services and outsourcing solutions to any businesses.  We offer solutions that help your business accelerate growth, simplify and personalise Customer Experience, and build priceless loyalty and trust.  At Our company, we’re dedicated to providing outstanding customer service that goes above and beyond our clients’ expectations. We work hard to achieve a high level of quality in every one of our projects.","622, Begum Rokeya Ave, Dhaka 1216.",Mirpur,1216,01966 100 888,info@digifea.com,https://www.digifea.com,Proprietorship,,"Graphic Design, Digital Marketing, BPO Solutions, Virtual Assistant, Web Development, Back Office Support"
Alpha Commerz LTD.,24-03-660,Associate,August 2023,https://basis.org.bd/images/logo/12c0abca70ccf21b0acfa96179844c0e12032024032314.png,"Alpha is a global e-commerce platform for forward-thinking companies. Our main goal is to find the best possible solution at all stages of development. We put your work and ideas at the forefront of our top priority. To serve our international clients and provide the highest caliber services on the market, we have experience in all key frameworks and technology stacks. With the best talents in the industry, see your business thrive. Alpha assists e-commerce in web development and coming up with creative marketing campaigns.  Lead the market with assurance and our cutting-edge methods. Develop unique websites. Expand and evolve your digital platform sustainably. Our creative team is constantly looking for the perfect solution for your e-commerce.","Plot-275/D, Rangs Nasim Square, Alpha Commerz LTD. Level 12, Rd 27 (Old)",Dhanmondi,1209,01777906906,info@alphacommerz.com.bd,http://alphacommerz.com.bd/,Limited Company,,Web Development
Innova Soft Ltd,24-03-664,Associate,October 2023,https://basis.org.bd/images/logo/42cdc74113a5d6eb485b9da1ae8e543211032024030950.jpg,IT Solution,"House-109/B (4th floor), Mohakhali DOHS",Mohakhali,1206,01714066521,info@innovasoftltd.com,http://www.innovasoftltd.com,Limited Company,,Web Development
Rubytech,24-06-014,Associate,June 2022,https://basis.org.bd/images/logo/a626712bdff495123f774cf700c8455c23062024060436.jpg,"We are an IT enabled service company, specialized in the field of R&D and software development. We are a leading high-tech firm where cutting-edge technology meets innovation!","79/1, Arma Shuileey, Middle Badda, Link Road, Dhaka 1212",Badda,1212,01781445825,nadim@rubytech.xyz,https://rubytech.xyz,Proprietorship,,"Web Development, Mobile App Development, Desktop App, Artificial Intelligence Modelling & App"
STARTISE LIMITED,24-06-017,Associate,February 2024,https://basis.org.bd/images/logo/e17c37b280f54904c39866694d825be710102024104804.png,"Startise is a beacon of innovation and the dynamic parent company of WPDeveloper and many other subsidiaries. With a diverse portfolio of brands, we foster excellence to help millions globally in their pursuit of growth and success across various sectors.","House: 592, Avenue: 05, Road: 08, Mirpur DOHS",Mirpur,1216,01715867854,rupok@startise.com,https://startise.com/,Limited Company,,Web Development
SMART-trend Digital,24-06-111,Associate,February 2024,https://basis.org.bd/images/logo/79002fd9efd1ed627dddfc571a1617fa13062024061119.jpg,"SMART-trend Digital stands as a beacon in the dynamic world of digital marketing and web services. Our foundation is built on a commitment to excellence and innovation in every aspect of digital marketing, SEO, graphics design and web design & development. At SMART-trend Digital, we are not just about providing services; we are about creating lasting digital legacies.","Gulshan 2, Dhaka 1212",Gulshan,1212,01854555534,SMARTtrendDigital.BD@gmail.com,www.SMARTtrendDigital.com,Proprietorship,,Web Development
Themeperch ltd,24-08-049,Associate,January 2024,https://basis.org.bd/images/logo/86cda534e91511df3ac3d24ab74f564901092024091153.png,"At Themeperch, our mission is to help people create beautiful and functional websites with ease. We believe that everyone should have access to high-quality web design and development services, regardless of their technical expertise or budget.  Our team is passionate about creating beautiful and functional websites that help our clients achieve their goals. We are committed to providing exceptional customer service and support, and we are always available to help our clients with any questions or issues they may have.","House #346, Road #25, Mohakhali DOHS",Mohakhali,1206,8801717819234,anup@themeperch.net,http://themeperch.net,Limited Company,,Web Development
ZS Solutions Limited,06-05-205,General,January 2005,https://basis.org.bd/images/logo/5f58c500d1eb1ZS BLACK.png,"ZS Solutions provides a range of mobility and accounting related software services including Mobile Messaging, Smartphone Apps Development and Accountancy Applications. Based in the Banani district of Dhaka, ZS Solutions employs the cream of BUET and NS University Software Engineering Graduates as well as experienced software and apps developers.  Our capabilities include end to end smartphone apps development on iOS and Android platforms as well as supporting PHP and SQL development.  We provide bulk SMS messaging services to over 130 Western and Global corporations.","ZS Solutions Ltd. 5th floor, House 61(Navana Cordelia) Road 17, Block C, Banani, Dhaka 1213",Banani,1213,"9821651, 01714-132223",ceo.zssuk@gmail.com,www.zssolutionslimited.com,Limited Company,2020-12-31,Web Development
Fiftytwo Digital Ltd.,07-08-257,General,April 2007,https://basis.org.bd/images/logo/6050eae29b8d1FTDL Logo.jpg,www.fiftytwodigital.com,"North Tower, 9th Floor, Plot-107, Sector-07, Dhaka-Mymensingh Road, Uttara, Dhaka-1230.",Uttara,1230,01713014147,navid@mohammadigroup.com,www.fiftytwodigital.com,Limited Company,2020-12-31,Web Development
JAJ-TECH,08-11-058,General,January 2002,https://basis.org.bd/images/logo/e561f52d7b479da88bbda8c2bdd9586629052022053713.jpg,Jajtech is the most trusted Software design & development firm in Bangladesh serving a variety of clients with its industry-leading software solutions.,"House No - 167, Road No - 03, New DOHS, Mohakhali, Dhaka - 1206",,1206,8712847,info@jajtech.net,http://jajtech.net/,,,Web Development
Cloudly Infotech Ltd.,12-02-153,General,January 2010,https://basis.org.bd/images/logo/6d0a0eb0940eb7a105afca6f704a82cd17102022102752.png,"Cloudly started in 2011 around the early days of cloud adoption by helping several global companies adopt and migrate to cloud as a partner of Amazon Web Services. Over time, we have evolved as a boutique cloud software firm and finally pivoted to a cloud-native software development company in 2019. Eight years into the cloud journey, Cloudly delivers technology services focused on cloud adoption and transformation, data engineering and science, serverless application development, application modernization, and DevOps services with one core theme: ""Cloud-native Software"". We leverage the innovative capabilities of the cloud to help customers build new revenue streams, increase efficiency, and deliver incredible experiences. As an Advanced Consulting Partner, our unmatched expertise with AWS means we’ve been there, done that, and bought the t-shirt. We focus on results as we help our customers uncover new possibilities to put them on the leading edge of innovation in their industry. Our extended software and service solutions include data backup and recovery, business continuity and disaster recovery, technology integration with a range of different platforms, scanning and security audit and compliance. Core of our company is software, web, mobile and Enterprise technologies.  Cloudly believes only in excellence and superb quality when it comes to delivering world-class software products based on latest and greatest stable hardware and software technologies. Over the course of the past ten years, we have delivered software and cloud services to over 100 clients around the globe: USA, UK, Canada, Australia, India and Bangladesh. Our expert software team has delivered over 100 projects spanning a wide range of technologies. Our leadership team has a deep understanding of the software industry and works closely with our parent company’s software specialist group in Silicon Valley. We have broadly experienced software architects, system analysts, business analysts, software engineers, mobile application developers, QA specialists and project managers -- together capable of executing and delivering complex software platforms that can fulfill the requirements of the most demanding customers, whether that is government, military or private Enterprises. We also partner with world’s premier CSPs, such as, Amazon, Google and CenturyLink; while we affiliate with industry’s most acclaimed associations locally as well as globally: BASIS, WISUN and CSCC. Online enterprise software, esp. CRM and mobile app development are in our DNA and we firmly believe that we are well-suited for any complex government custom application. We plan to continue advancing our technical capabilities, expanding our products and services offerings, enhancing our sales and marketing efforts to emerge as one of the most powerful ICT companies in not only the USA; but also in South East Asia.","House # 429 (2nd Floor), Road # 30, DOHS Mohakhali, Dhaka-1206",Gulshan,1206,28711116,manzur@horoppa.com,www.cloudly.io,Limited Company,2020-12-31,"DR Solutions, Websites & E-Commerce, Mobile Applications Development, Web Development, Digital Media, Managed Service, DevOps Services"
Xplantr Ltd.,13-12-282,General,May 2013,https://basis.org.bd/images/logo/612f553e26fe2Xplantr_logo.png,"Xplantr Ltd. is a software company with an operation base in Dhaka, Bangladesh. We help legacy enterprises embrace powerful digital transformations by modernizing simple-to-complex systems, integrating them with new technology and digital solutions, and leverage fresh business opportunities. We have served more than 350 clients at home and abroad for over 8 years. We are devoted to building the perfect Dynamic Websites, Enterprise solutions, Mobile Apps, and design and develop custom applications","Level #6, House # 82, Road # 10/1, Block # D, Niketon, Gulshan -01, Dhaka",Gulshan,1212,01717179530,rony@xplantr.com,www.xplantr.com,Limited Company,2020-12-31,Web Development
ESOP Bangladesh Ltd.,15-01-620,General,January 2013,https://basis.org.bd/images/logo/9fbc72fab7c4aae258120750a3592a1108032024031838.jpg,"Our company has been providing exceptional software services to clients for over 12 years, and we have a proven track record of delivering high-quality solutions that meet our client's unique requirements. At ESOP BANGLADESH LTD., we understand that every business has different needs and challenges, and we are committed to providing customized software solutions that help our clients achieve their goals. Our team of skilled developers, designers, and project managers works closely with our clients to understand their business requirements, analyze their processes, and develop a comprehensive solution that addresses their unique needs.   We take pride in our ability to deliver innovative solutions that leverage the latest technologies and industry best practices. This expertise enables us to provide our clients with a wide range of software services, including web development, mobile app development, cloud computing, and digital marketing.   ESOP BANGLADESH LTD.  is the best choice for businesses looking for innovative and customized software solutions. Our team of skilled professionals, commitment to quality, and exceptional customer service make us the ideal partner for businesses looking to transform their ideas into reality.","Kha-225, Century Centre (6th Floor )Progoti Sarani, Merul Badda, Gulshan-1  Dhaka-1212.",Banani,1213,01711306212,esopbd@gmail.com,www.esop.com.bd,Limited Company,2018-12-31,"eCommerce Development, Apps Developement, Web Development, Digital Marketing"
RD NETWORK BD,15-06-388,General,June 2014,https://basis.org.bd/images/logo/397620ebbaddccf053681416a9b953e318022022024139.png,"RD Network BD was established in 2014 in Dhaka, Bangladesh, as a forward-thinking IT company dedicated to transforming the digital landscape for our clients. We specialize in software development, website design and development, server and domain hosting, outsourcing, and IT training.  Our mission is to empower businesses by enhancing their online presence and helping them achieve their professional objectives through innovative web solutions. We prioritize delivering unique and creative IT solutions tailored to our clients’ specific needs.  At RD Network BD, we believe in optimizing business processes to ensure faster results and increased efficiency. Our Think-Build-Operate methodology guides our operations, enabling us to consult, build, and support our clients every step of the way. We are committed to being a trusted partner in your journey toward digital excellence.","270/ka, Flat: D8 (8th floor), West Agargaon, Sher-e-Bangla Nagar, Dhaka-1207",Mohammadpur,1207,01787-882277,contact@rdnetworkbd.com,https://rdnetworkbd.com,Proprietorship,2018-12-31,"Clipping Path, Web Development, Web Hosting"
Epark IT Ltd.,16-02-763,General,October 2011,https://basis.org.bd/images/logo/dec04cd61fdaad39261f150b3be16a16.jpg,"Epark IT Ltd is a professional outsourcing IT company that provides services for small and medium-sized enterprises. Our clients know us as the one-stop-shop for all their technology needs. We provide them with solutions to help them grow, scale up and optimize their business processes. Epark IT Ltd has been in operation since 2011 and has grown from 4 employees to over 50+ employees today!","House-342,Raod-05,Avenue-03, Mirpur DOHS, Dhaka-1216 .",Mirpur,1216,01715-181122,mejba@epark-it.com,www.epark-it.com,Limited Company,2019-12-31,"photo editing services, Internet Marketing, Web Development"
TiCON System Ltd.,16-08-817,General,October 2007,https://basis.org.bd/images/logo/201606191802432099126098_400x400.jpg,"TiCON is a global information technology provider specializing for Streaming Technology, Artificial Intelligence, SaaS, BigData, Web and App technologies'. Our Existence client's/partners enjoy cloud and cognitive services which drive them stable service operation. We work closely with customers to develop fundamentally secure infrastructure automation code, deployment pipelines, and feedback mechanisms for faster, more consistent software and infrastructure deployments.","Level 6, House of Veritas,8 Gareeb-e-Nawaz Ave,Uttara",Uttara,1230,+8801777174791,info@ticonsys.com,www.ticonsys.com,Limited Company,2020-12-31,"Information technology consulting, Enterprise application integration (EAI), Custom Software Development, Web Development, Mobile App Development, AI Integration, Ultimate Streaming Solution"
Digerati,19-05-1022,General,January 2013,https://basis.org.bd/images/logo/20171224084231703699085_templatemo_logo.png,,"House 7, Road 17, Block C, Banani C/A, Dhaka-1213",,1213,1977487777,info@digerati.com,digerati.com.bd,Proprietorship,2019-12-31,Web Development
Aan-Nahl,19-11-1069,General,January 2010,https://basis.org.bd/images/logo/2019091112103556535171_aan-nahl.png,We are a software company committed to helping businesses build and improve their software products,"Tower 71, Level #10, APT #A-B, 516/3-South Manikdi, Matikata Road, ECB Chattar, Dhaka Cantt.",Mirpur,1206,1713084430,abirymail@gmail.com,https://aan-nahl.com/,Proprietorship,2019-12-31,Web Development
Icicle Corporation,19-11-770,General,May 2017,https://basis.org.bd/images/logo/5f17738d1e3e1icic_logo.png,"Icicle Corporation has gained expertise in Software and Mobile application Development where we perennially invert new products or enhance existing products. With our comprehensive understanding of diversified business verticals and wide resources, we mobilize the right people, skills and technologies to help organizations enhance its performance and transform cost burdens in this competitive market.","House: 61  (5th floor)  Road: 6/A Dhanmondi, 1205",Dhanmondi,1205,+880-9678774488,support@iciclecorporation.com,www.iciclecorporation.com,Proprietorship,2020-12-31,Web Development
Invento Software Limited,20-11-948,General,January 2015,https://basis.org.bd/images/logo/619a62dd3d0caWhatsApp Image 2020-11-11 at 5.41.46 PM.jpeg,"Invento software Limited is a software solution, IT Solutions and Digital Marketing solution provider from Dhaka Bangladesh. Our core products and solutions include ERP solution, Retail POS software, Supply Chain management software, Custom software Development, Web development, Mobile App development, Digital Marketing","House 484 (4th Floor), Road 32, New DOHS, MohaKhali",Gulshan,1206,01713178224,hello@invento.com.bd,http://www.invento.com.bd,Limited Company,,"Custom Software Development, Web Development, Mobile Application Development, Digital Marketing"
VISER X LIMITED,21-02-018,General,January 2014,https://basis.org.bd/images/logo/601bba71cbbbaVISER X Logo (Main).jpg,"VISER X is a global information technology, software development and digital marketing agency. We served more than 5000 clients from 106 countries so far.   We work in areas as diverse as software development, web development, digital marketing, web application development, search engine optimization, social media marketing, branding, mobile app development and reputation management.","House 6, Road 2, Sector 11, Uttara",Uttara,1230,01842088100,info@viserx.com,https://www.viserx.com,Limited Company,,"Search Engine Optimization, Web Development, Web Application Development, Digital Marketing"
Idlewild Digital,21-12-003,General,August 2015,https://basis.org.bd/images/logo/2f5d6adfb4b698ea2be3e941e5fdc2fd15122021123906.png,Offshore software development company in Bangladesh,"Road-1/B,House-8,Appertment no-6(A),Sector-9,Uttara",Uttara,1230,01726703557,info@idlewilddigital.com,http://www.idlewilddigital.com,Proprietorship,,Web Development
Webtricker Web Design & Development Agency,22-04-021,General,March 2014,https://basis.org.bd/images/logo/1d8c2e0f7d0fc534121c469b947bfa1509052022055659.png,"Welcome to Webtricker, your all-in-one solution for website design and development! At Webtricker, we pride ourselves on providing a comprehensive range of services to help you create a stunning and effective website. Whether you need help with branding, web design, or web development, we have the expertise and experience to deliver outstanding results.  Our team of skilled designers and developers work closely with you to understand your needs and preferences, ensuring that your website perfectly reflects your brand and meets your goals. We offer a wide range of design and development services, including custom website design, e-commerce solutions, content management systems, and more.  But our services don't stop there. We also provide reliable and secure hosting options to ensure that your website runs smoothly and is always accessible to your visitors. Our hosting solutions come with robust security features to protect your website from potential threats, and we offer regular backups and maintenance to ensure optimal performance.  So, if you're looking for a reliable and experienced partner for your website design and development needs, look no further than Webtricker. Contact us today to learn more about how we can help you create the website of your dreams!","Bagerhata, Zia College Moar (Beside Shahid Minar)",Jamalpur,2000,01712377577,md.rashidh@gmail.com,http://www.webtricker.com/,Proprietorship,,Web Development
Aalpin Digital,22-08-015,General,September 2019,https://basis.org.bd/images/logo/68341d16653f7b865f968370bcd8560931082022084049.jpeg,"Aalpin Digital was formed in 2019, although the journey started in 2008 in the IT industry. Since then we have been providing customers services such as 360 degree Digital Marketing, Web and Mobile Application Development, Remote talent solutions. Teamwork and excellent communications skills are in our DNA.","House-5, Road-17, Block-D, Banani",,1213,01551805808,info@aalpin.com,http://www.aalpin.com,Proprietorship,,Web Development
Increments Inc.,22-10-008,General,April 2016,https://basis.org.bd/images/logo/77a694f6e9cb4b3a888fd4755074b1c325012023013344.png,"Elevating enterprise automation to artistry. Seamlessly blending AI, ML, AR, and VR for unparalleled cross-platform experiences.","23, Gareeb-e-Newaz Ave, Sector-13, Uttara",Uttara,1230,01308042284,info@incrementsinc.com,https://www.incrementsinc.com,Proprietorship,,"Mobile App Development, Custom Solution, Information technology consulting, Web Development, UI/UX Design and Development, Enterprise application integration (EAI), AI Integration"
Core Devs ltd,23-03-029,General,January 2021,https://basis.org.bd/images/logo/4f41567d91ea60d3a3f502e6cddc32b411032023030002.jpg,"Core Devs Ltd is a Blockchain & Automation Development company that provides any sort of custom solution to a problem. Our team is knowledgeable in both web2 and web3 technologies, allowing us to provide our clients with any services they require in this ever-changing industry. We make every effort to be open and honest with our clients and partners. We believe that trust is an essential component of any business.","Core Devs Ltd., Level - 5, House-1041, Avenue-09,  Mirpur DOHS, Dhaka",Mirpur,1216,01894945337,support@coredevs.ltd,http://www.coredevsltd.com,Limited Company,,"Web Development, Task Automation, Trading Automation, SaaS Development, Smart Contract Development, dApps Development, Blockchain Development, Data Scraping & Filtering"
F. A. Creative Firm Limited,23-04-044,General,November 2012,https://basis.org.bd/images/logo/9bc945665a2c74be9cb3920b6dd0afef21042024044602.jpg,"“F.A.CREATIVE FIRM LIMITED” is one of the reputed leading IT company in Bangladesh for the since 13 November 2012 as an innovative firm. This company is famous for producing her magnificent creation of web design, software, mobile apps development, creative graphic design, multimedia, etc.  Also, we are providing services first-class Domain & Hosting, Digital Marketing, and Printing solution to customers.","Shikkhok Bhaban (4th Floor: East), Andorkilla Square, Andorkilla, Kotwali, Chattogram",Chattogram,4000,01781881199,facreative.bd@gmail.com,https://facreative.biz/,Limited Company,,"Software Dvelopment, Web Development, Apps Development, Domain and Hosting"
LEVEL7,24-03-685,General,December 2020,https://basis.org.bd/images/logo/02f3ee978d0d48741cc5704aac41613316032024033002.png,"Since it's inception LEVEL7 has been Making Brands Matter, providing 360 services from digital presence to physical branding and campaigns to it's clients.","229/1, Road - 10/A (Old19), West Dhanmondi - Dhaka",Dhanmondi,1209,01902777000,sohan@level7ltd.com,www.level7ltd.com,Proprietorship,,"Cross-Platform App Development, Game Development, Web Development, Events and Activation"
MRZ International,24-03-697,General,July 2018,https://basis.org.bd/images/logo/914e0c0a65e9d359770fb85657aa093212032024033309.png,"MRZ International is a well-established and reputed business house in the country, and the leading concern of MRZ Group. It is an active member of the Indenting Association of Bangladesh, India-Bangladesh Chamber of Commerce & Industry and also enlisted with Ministry of Defense (MOD), Naval Stores Dept Chittagong, Naval Stores Sub-Depot Dhaka, Bangladesh Police, Border Guard Bangladesh (BGB), Bangladesh Coast Guard and Rapid Action Battalion (RAB).  It has gained substantial success in dealing with the Defense sector. It offers a comprehensive inventory for the Defense industry including a wide range of products for diversified sector.  MRZ International is a dynamic player in the Information and Communication Technology (ICT) sector. Since its inception in 2018, the company has been at the forefront of delivering cutting-edge solutions through a global team of skilled professionals.  Presently MRZ International is focused on the ship building sector and closely working with Khulna Shipyard Ltd, Dockyard Engineering Works, Narayangonj, Chittagong Dry Dock Ltd as a local partner of various world renowned shipyards.","House # 11/A-1, Road # 41, Gulshan-2, Dhaka-1212, Bangladesh",Gulshan,1212,+8801991198318,info@mrzinternational.com,https://www.mrzinternational.com/,Proprietorship,,"Web Development, Web Development, Digital Services, Digital Services"
MRZ International,24-03-697,General,July 2018,https://basis.org.bd/images/logo/914e0c0a65e9d359770fb85657aa093212032024033309.png,"MRZ International is a well-established and reputed business house in the country, and the leading concern of MRZ Group. It is an active member of the Indenting Association of Bangladesh, India-Bangladesh Chamber of Commerce & Industry and also enlisted with Ministry of Defense (MOD), Naval Stores Dept Chittagong, Naval Stores Sub-Depot Dhaka, Bangladesh Police, Border Guard Bangladesh (BGB), Bangladesh Coast Guard and Rapid Action Battalion (RAB).  It has gained substantial success in dealing with the Defense sector. It offers a comprehensive inventory for the Defense industry including a wide range of products for diversified sector.  MRZ International is a dynamic player in the Information and Communication Technology (ICT) sector. Since its inception in 2018, the company has been at the forefront of delivering cutting-edge solutions through a global team of skilled professionals.  Presently MRZ International is focused on the ship building sector and closely working with Khulna Shipyard Ltd, Dockyard Engineering Works, Narayangonj, Chittagong Dry Dock Ltd as a local partner of various world renowned shipyards.","House # 11/A-1, Road # 41, Gulshan-2, Dhaka-1212, Bangladesh",Gulshan,1212,+8801991198318,info@mrzinternational.com,https://www.mrzinternational.com/,Proprietorship,,"Web Development, Web Development, Digital Services, Digital Services"
Khan IT Host,24-06-068,General,January 2020,https://basis.org.bd/images/logo/4233c2a52d127b98578abbd2bbfcfefb03072024071722.png,"Founded in 2020, Khan IT Host quickly became a leading provider of comprehensive Software & Information Technology Services. Over the years, we've diligently served diverse sectors, including Educational Institutes, Press & Media, E-commerce, and Enterprises. Our commitment to innovation and unwavering support solidies us as a trusted industry partner. Guided by a passion for technological advancement, we continue to advance our ser- vices, adapting to meet the dynamic needs of our clients. Our dedicated team blends expertise with creativity, ensuring tailored solutions that drive business success. Committed to excellence, we pride ourselves on delivering reliable, cutting-edge IT solutions that empower our clients to thrive in the ever-evolving digital landscape. Additionally, Mr. Md Mostafa Khan, Founder of Khan IT Host, has been honored with numerous prestigious awards, including the Human Rights Peace Award-2021, Shere Bangla Golden Award-2022, Mujib Barsha Independence Award-2022, and others. These recognitions highlight his outstanding contributions, reecting Khan IT Host's ethos of innovation and commitment to societal well-being.","Khan Super Market, Tolatuly Bazar, Raipura, Narsingd",Narsingdi,1630,01920080106,khanithost@gmail.com,http://www.khanithost.com,Proprietorship,,"School Management Software, Web Development, Web Hosting, Website Maintanance, Somobay Somity Software, Diagnostic Software, Business Management Software"
UnivaHost,24-06-078,General,September 2017,https://basis.org.bd/images/logo/61859822915f40365444502be78e30cc11062024065114.png,"UnivaHost is leading World-Wide Domain Hosting Platform. UnivaHost is a dedicated web hosting company that offers World-wide Domain Hosting, Reseller Hosting, Shared Hosting, VPS server, Dedicated Server, Cheap rate Domain name at affordable price. So, let's come, join us and spark your business with us.","15, 1012/1 Ahmed Plaza, Level 2, Court Road, Brahmanbaria",Brahmanbaria,3400,01866645045,mail@univahost.com,https://univahost.com,Proprietorship,,"Web Hosting, Web Development, Website Maintanance, Web Consultation"
